{"type": "FeatureCollection", "features": [{"type": "Feature", "properties": {"norad_id": 25590, "name": "COSMOS 2361", "group": "musson", "lat": 64.74326213136207, "lon": 144.352677584894, "alt_km": 997.0544227928121, "timestamp": "2025-12-18T19:29:52.814294+00:00", "meta": {"OBJECT_NAME": "COSMOS 2361", "OBJECT_ID": "1998-076A", "EPOCH": "2025-12-18T05:00:11.046816", "MEAN_MOTION": 13.73218191, "ECCENTRICITY": 0.00301212, "INCLINATION": 82.934, "RA_OF_ASC_NODE": 340.0414, "ARG_OF_PERICENTER": 249.7458, "MEAN_ANOMALY": 120.7432, "EPHEMERIS_TYPE": 0, "CLASSIFICATION_TYPE": "U", "NORAD_CAT_ID": 25590, "ELEMENT_SET_NO": 999, "REV_AT_EPOCH": 35186, "BSTAR": 6.0099415e-05, "MEAN_MOTION_DOT": 7.1e-07, "MEAN_MOTION_DDOT": 0}, "tle": {"line1": "1 25590U 98076A   25352.20846119  .00000071  00000+0  60099-4 0  9994", "line2": "2 25590  82.9340 340.0414 0030121 249.7458 120.7432 13.73218191351869"}}, "geometry": {"type": "Point", "coordinates": [144.352677584894, 64.74326213136207]}}, {"type": "Feature", "properties": {"norad_id": 26818, "name": "COSMOS 2378", "group": "musson", "lat": -27.335086031312137, "lon": 178.90147507987598, "alt_km": 967.7280547568162, "timestamp": "2025-12-18T19:29:52.814316+00:00", "meta": {"OBJECT_NAME": "COSMOS 2378", "OBJECT_ID": "2001-023A", "EPOCH": "2025-12-18T06:18:50.377248", "MEAN_MOTION": 13.74142475, "ECCENTRICITY": 0.0032736, "INCLINATION": 82.9271, "RA_OF_ASC_NODE": 355.6291, "ARG_OF_PERICENTER": 189.333, "MEAN_ANOMALY": 182.02, "EPHEMERIS_TYPE": 0, "CLASSIFICATION_TYPE": "U", "NORAD_CAT_ID": 26818, "ELEMENT_SET_NO": 999, "REV_AT_EPOCH": 22999, "BSTAR": 4.6878855e-05, "MEAN_MOTION_DOT": 5.9e-07, "MEAN_MOTION_DDOT": 0}, "tle": {"line1": "1 26818U 01023A   25352.26308307  .00000059  00000+0  46879-4 0  9998", "line2": "2 26818  82.9271 355.6291 0032736 189.3330 182.0200 13.74142475229997"}}, "geometry": {"type": "Point", "coordinates": [178.90147507987598, -27.335086031312137]}}, {"type": "Feature", "properties": {"norad_id": 27436, "name": "COSMOS 2389", "group": "musson", "lat": 74.90266976079725, "lon": -30.209961070481278, "alt_km": 944.4853701390721, "timestamp": "2025-12-18T19:29:52.814330+00:00", "meta": {"OBJECT_NAME": "COSMOS 2389", "OBJECT_ID": "2002-026A", "EPOCH": "2025-12-18T07:38:55.895136", "MEAN_MOTION": 13.75155283, "ECCENTRICITY": 0.00474566, "INCLINATION": 82.9507, "RA_OF_ASC_NODE": 302.8546, "ARG_OF_PERICENTER": 45.5781, "MEAN_ANOMALY": 107.989, "EPHEMERIS_TYPE": 0, "CLASSIFICATION_TYPE": "U", "NORAD_CAT_ID": 27436, "ELEMENT_SET_NO": 999, "REV_AT_EPOCH": 18225, "BSTAR": 3.9497563e-05, "MEAN_MOTION_DOT": 5.4e-07, "MEAN_MOTION_DDOT": 0}, "tle": {"line1": "1 27436U 02026A   25352.31870249  .00000054  00000+0  39498-4 0  9998", "line2": "2 27436  82.9507 302.8546 0047456  45.5781 107.9890 13.75155283182251"}}, "geometry": {"type": "Point", "coordinates": [-30.209961070481278, 74.90266976079725]}}, {"type": "Feature", "properties": {"norad_id": 27818, "name": "COSMOS 2398", "group": "musson", "lat": -31.56531608558279, "lon": -96.13771141765439, "alt_km": 1011.5585550370224, "timestamp": "2025-12-18T19:29:52.814342+00:00", "meta": {"OBJECT_NAME": "COSMOS 2398", "OBJECT_ID": "2003-023A", "EPOCH": "2025-12-18T06:27:24.026976", "MEAN_MOTION": 13.72386288, "ECCENTRICITY": 0.00327295, "INCLINATION": 82.9484, "RA_OF_ASC_NODE": 268.6238, "ARG_OF_PERICENTER": 97.0129, "MEAN_ANOMALY": 68.4031, "EPHEMERIS_TYPE": 0, "CLASSIFICATION_TYPE": "U", "NORAD_CAT_ID": 27818, "ELEMENT_SET_NO": 999, "REV_AT_EPOCH": 12892, "BSTAR": 4.535584e-05, "MEAN_MOTION_DOT": 5.7e-07, "MEAN_MOTION_DDOT": 0}, "tle": {"line1": "1 27818U 03023A   25352.26902809  .00000057  00000+0  45356-4 0  9995", "line2": "2 27818  82.9484 268.6238 0032729  97.0129  68.4031 13.72386288128921"}}, "geometry": {"type": "Point", "coordinates": [-96.13771141765439, -31.56531608558279]}}, {"type": "Feature", "properties": {"norad_id": 28380, "name": "COSMOS 2407", "group": "musson", "lat": -68.70530891774315, "lon": 46.87958634392819, "alt_km": 1009.3821702098348, "timestamp": "2025-12-18T19:29:52.814353+00:00", "meta": {"OBJECT_NAME": "COSMOS 2407", "OBJECT_ID": "2004-028A", "EPOCH": "2025-12-18T03:08:28.062240", "MEAN_MOTION": 13.7631431, "ECCENTRICITY": 0.00401077, "INCLINATION": 82.96, "RA_OF_ASC_NODE": 208.9012, "ARG_OF_PERICENTER": 40.1735, "MEAN_ANOMALY": 74.9529, "EPHEMERIS_TYPE": 0, "CLASSIFICATION_TYPE": "U", "NORAD_CAT_ID": 28380, "ELEMENT_SET_NO": 999, "REV_AT_EPOCH": 7497, "BSTAR": 6.8711859e-05, "MEAN_MOTION_DOT": 8.3e-07, "MEAN_MOTION_DDOT": 0}, "tle": {"line1": "1 28380U 04028A   25352.13088035  .00000083  00000+0  68712-4 0  9998", "line2": "2 28380  82.9600 208.9012 0040107  40.1735  74.9529 13.76314310 74974"}}, "geometry": {"type": "Point", "coordinates": [46.87958634392819, -68.70530891774315]}}, {"type": "Feature", "properties": {"norad_id": 28521, "name": "COSMOS 2414", "group": "musson", "lat": 45.549495995011306, "lon": -172.68420946318244, "alt_km": 924.9568182907469, "timestamp": "2025-12-18T19:29:52.814364+00:00", "meta": {"OBJECT_NAME": "COSMOS 2414", "OBJECT_ID": "2005-002A", "EPOCH": "2025-12-18T05:26:06.335808", "MEAN_MOTION": 13.87903685, "ECCENTRICITY": 0.00411842, "INCLINATION": 82.9488, "RA_OF_ASC_NODE": 180.5109, "ARG_OF_PERICENTER": 124.3895, "MEAN_ANOMALY": 236.1174, "EPHEMERIS_TYPE": 0, "CLASSIFICATION_TYPE": "U", "NORAD_CAT_ID": 28521, "ELEMENT_SET_NO": 999, "REV_AT_EPOCH": 5871, "BSTAR": 5.5052332e-05, "MEAN_MOTION_DOT": 8.2e-07, "MEAN_MOTION_DDOT": 0}, "tle": {"line1": "1 28521U 05002A   25352.22646222  .00000082  00000+0  55052-4 0  9998", "line2": "2 28521  82.9488 180.5109 0041184 124.3895 236.1174 13.87903685 58718"}}, "geometry": {"type": "Point", "coordinates": [-172.68420946318244, 45.549495995011306]}}, {"type": "Feature", "properties": {"norad_id": 32052, "name": "COSMOS 2429", "group": "musson", "lat": -79.14853149736655, "lon": -161.17190117169272, "alt_km": 1002.5485397988323, "timestamp": "2025-12-18T19:29:52.814374+00:00", "meta": {"OBJECT_NAME": "COSMOS 2429", "OBJECT_ID": "2007-038A", "EPOCH": "2025-12-18T00:45:56.391552", "MEAN_MOTION": 13.75149953, "ECCENTRICITY": 0.00389545, "INCLINATION": 82.9804, "RA_OF_ASC_NODE": 339.4071, "ARG_OF_PERICENTER": 23.3789, "MEAN_ANOMALY": 336.9128, "EPHEMERIS_TYPE": 0, "CLASSIFICATION_TYPE": "U", "NORAD_CAT_ID": 32052, "ELEMENT_SET_NO": 999, "REV_AT_EPOCH": 91675, "BSTAR": 5.3231128e-05, "MEAN_MOTION_DOT": 6.6e-07, "MEAN_MOTION_DDOT": 0}, "tle": {"line1": "1 32052U 07038A   25352.03190268  .00000066  00000+0  53231-4 0  9995", "line2": "2 32052  82.9804 339.4071 0038954  23.3789 336.9128 13.75149953916750"}}, "geometry": {"type": "Point", "coordinates": [-161.17190117169272, -79.14853149736655]}}, {"type": "Feature", "properties": {"norad_id": 35635, "name": "COSMOS 2454", "group": "musson", "lat": 38.38020888416283, "lon": -21.579040251889094, "alt_km": 924.3519577296493, "timestamp": "2025-12-18T19:29:52.814385+00:00", "meta": {"OBJECT_NAME": "COSMOS 2454", "OBJECT_ID": "2009-039A", "EPOCH": "2025-12-18T05:49:48.324288", "MEAN_MOTION": 13.89929334, "ECCENTRICITY": 0.0020316, "INCLINATION": 82.9553, "RA_OF_ASC_NODE": 164.4731, "ARG_OF_PERICENTER": 59.0531, "MEAN_ANOMALY": 113.9183, "EPHEMERIS_TYPE": 0, "CLASSIFICATION_TYPE": "U", "NORAD_CAT_ID": 35635, "ELEMENT_SET_NO": 999, "REV_AT_EPOCH": 83226, "BSTAR": 4.8656636e-05, "MEAN_MOTION_DOT": 7.6e-07, "MEAN_MOTION_DDOT": 0}, "tle": {"line1": "1 35635U 09039A   25352.24292042  .00000076  00000+0  48657-4 0  9991", "line2": "2 35635  82.9553 164.4731 0020316  59.0531 113.9183 13.89929334832265"}}, "geometry": {"type": "Point", "coordinates": [-21.579040251889094, 38.38020888416283]}}, {"type": "Feature", "properties": {"norad_id": 36519, "name": "COSMOS 2463", "group": "musson", "lat": 37.78783752863986, "lon": -163.24713603100327, "alt_km": 1006.8558802275502, "timestamp": "2025-12-18T19:29:52.814396+00:00", "meta": {"OBJECT_NAME": "COSMOS 2463", "OBJECT_ID": "2010-017A", "EPOCH": "2025-12-18T05:08:19.852224", "MEAN_MOTION": 13.71649666, "ECCENTRICITY": 0.00347384, "INCLINATION": 82.9607, "RA_OF_ASC_NODE": 22.6896, "ARG_OF_PERICENTER": 272.2904, "MEAN_ANOMALY": 157.1092, "EPHEMERIS_TYPE": 0, "CLASSIFICATION_TYPE": "U", "NORAD_CAT_ID": 36519, "ELEMENT_SET_NO": 999, "REV_AT_EPOCH": 78312, "BSTAR": 6.4066563e-05, "MEAN_MOTION_DOT": 7.3e-07, "MEAN_MOTION_DDOT": 0}, "tle": {"line1": "1 36519U 10017A   25352.21411866  .00000073  00000+0  64067-4 0  9995", "line2": "2 36519  82.9607  22.6896 0034738 272.2904 157.1092 13.71649666783127"}}, "geometry": {"type": "Point", "coordinates": [-163.24713603100327, 37.78783752863986]}}]}